TOMORROW-S2             
1 60485U 24149T   26068.75188364  .00008133  00000+0  27683-3 0  9990
2 60485  97.3857 150.0385 0001648 234.3331 125.7757 15.30674935 86869
STARLINK-33922          
1 63698U 25087B   26068.69325873  .00020283  00000+0  69520-3 0  9998
2 63698  53.1587 219.2958 0000700  65.3200 294.7873 15.30194440 49196
